CTC2_L_00109001-01
1 10000U 24284IV  26075.70041667  .00000000  00000+0  00000-0 0  9991
2 10000  40.0000   0.0000 0000000   0.0000   0.0000 14.51731151    17
CTC2_L_00109001-02
1 10001U 24316RQ  26075.70041667  .00000000  00000+0  00000-0 0  9998
2 10001  40.0000   0.0000 0000000   0.0000  90.0000 14.51731151    17
CTC2_L_00109001-03
1 10002U 25197QR  26075.70041667  .00000000  00000+0  00000-0 0  9997
2 10002  40.0000   0.0000 0000000   0.0000 180.0000 14.51731151    18
CTC2_L_00109001-04
1 10003U 23235HM  26075.70041667  .00000000  00000+0  00000-0 0  9999
2 10003  40.0000   0.0000 0000000   0.0000 270.0000 14.51731151    19
CTC2_L_00109002-01
1 10004U 25239NL  26075.70041667  .00000000  00000+0  00000-0 0  9996
2 10004  40.0000  12.0000 0000000   0.0000  12.0000 14.51731151    17
CTC2_L_00109002-02
1 10005U 23316O   26075.70041667  .00000000  00000+0  00000-0 0  9991
2 10005  40.0000  12.0000 0000000   0.0000 102.0000 14.51731151    18
CTC2_L_00109002-03
1 10006U 24956MD  26075.70041667  .00000000  00000+0  00000-0 0  9993
2 10006  40.0000  12.0000 0000000   0.0000 192.0000 14.51731151    18
CTC2_L_00109002-04
1 10007U 26409YN  26075.70041667  .00000000  00000+0  00000-0 0  9999
2 10007  40.0000  12.0000 0000000   0.0000 282.0000 14.51731151    19
CTC2_L_00109003-01
1 10008U 22419TB  26075.70041667  .00000000  00000+0  00000-0 0  9997
2 10008  40.0000  24.0000 0000000   0.0000  24.0000 14.51731151    17
CTC2_L_00109003-02
1 10009U 24545QH  26075.70041667  .00000000  00000+0  00000-0 0  9990
2 10009  40.0000  24.0000 0000000   0.0000 114.0000 14.51731151    18
CTC2_L_00109003-03
1 10010U 24234WE  26075.70041667  .00000000  00000+0  00000-0 0  9997
2 10010  40.0000  24.0000 0000000   0.0000 204.0000 14.51731151    10
CTC2_L_00109003-04
1 10011U 25063WJ  26075.70041667  .00000000  00000+0  00000-0 0  9999
2 10011  40.0000  24.0000 0000000   0.0000 294.0000 14.51731151    10
CTC2_L_00109004-01
1 10012U 24552BR  26075.70041667  .00000000  00000+0  00000-0 0  9992
2 10012  40.0000  36.0000 0000000   0.0000  36.0000 14.51731151    18
CTC2_L_00109004-02
1 10013U 23335EZ  26075.70041667  .00000000  00000+0  00000-0 0  9991
2 10013  40.0000  36.0000 0000000   0.0000 126.0000 14.51731151    19
CTC2_L_00109004-03
1 10014U 23882ZR  26075.70041667  .00000000  00000+0  00000-0 0  9999
2 10014  40.0000  36.0000 0000000   0.0000 216.0000 14.51731151    10
CTC2_L_00109004-04
1 10015U 23971LM  26075.70041667  .00000000  00000+0  00000-0 0  9999
2 10015  40.0000  36.0000 0000000   0.0000 306.0000 14.51731151    11
CTC2_L_00109005-01
1 10016U 22521RI  26075.70041667  .00000000  00000+0  00000-0 0  9990
2 10016  40.0000  48.0000 0000000   0.0000  48.0000 14.51731151    18
CTC2_L_00109005-02
1 10017U 25261X   26075.70041667  .00000000  00000+0  00000-0 0  9995
2 10017  40.0000  48.0000 0000000   0.0000 138.0000 14.51731151    19
CTC2_L_00109005-03
1 10018U 23307EH  26075.70041667  .00000000  00000+0  00000-0 0  9995
2 10018  40.0000  48.0000 0000000   0.0000 228.0000 14.51731151    10
CTC2_L_00109005-04
1 10019U 23725KC  26075.70041667  .00000000  00000+0  00000-0 0  9990
2 10019  40.0000  48.0000 0000000   0.0000 318.0000 14.51731151    11
CTC2_L_00109006-01
1 10020U 23757KJ  26075.70041667  .00000000  00000+0  00000-0 0  9997
2 10020  40.0000  60.0000 0000000   0.0000  60.0000 14.51731151    11
CTC2_L_00109006-02
1 10021U 22066W   26075.70041667  .00000000  00000+0  00000-0 0  9990
2 10021  40.0000  60.0000 0000000   0.0000 150.0000 14.51731151    12
CTC2_L_00109006-03
1 10022U 25923KA  26075.70041667  .00000000  00000+0  00000-0 0  9996
2 10022  40.0000  60.0000 0000000   0.0000 240.0000 14.51731151    13
CTC2_L_00109006-04
1 10023U 25646OR  26075.70041667  .00000000  00000+0  00000-0 0  9999
2 10023  40.0000  60.0000 0000000   0.0000 330.0000 14.51731151    14
CTC2_L_00109007-01
1 10024U 22582IT  26075.70041667  .00000000  00000+0  00000-0 0  9996
2 10024  40.0000  72.0000 0000000   0.0000  72.0000 14.51731151    11
CTC2_L_00109007-02
1 10025U 25996PY  26075.70041667  .00000000  00000+0  00000-0 0  9999
2 10025  40.0000  72.0000 0000000   0.0000 162.0000 14.51731151    12
CTC2_L_00109007-03
1 10026U 22829YN  26075.70041667  .00000000  00000+0  00000-0 0  9992
2 10026  40.0000  72.0000 0000000   0.0000 252.0000 14.51731151    13
CTC2_L_00109007-04
1 10027U 22687U   26075.70041667  .00000000  00000+0  00000-0 0  9995
2 10027  40.0000  72.0000 0000000   0.0000 342.0000 14.51731151    14
CTC2_L_00109008-01
1 10028U 25144OS  26075.70041667  .00000000  00000+0  00000-0 0  9997
2 10028  40.0000  84.0000 0000000   0.0000  84.0000 14.51731151    11
CTC2_L_00109008-02
1 10029U 23233JL  26075.70041667  .00000000  00000+0  00000-0 0  9995
2 10029  40.0000  84.0000 0000000   0.0000 174.0000 14.51731151    12
CTC2_L_00109008-03
1 10030U 25484WW  26075.70041667  .00000000  00000+0  00000-0 0  9997
2 10030  40.0000  84.0000 0000000   0.0000 264.0000 14.51731151    14
CTC2_L_00109008-04
1 10031U 26351LS  26075.70041667  .00000000  00000+0  00000-0 0  9992
2 10031  40.0000  84.0000 0000000   0.0000 354.0000 14.51731151    15
CTC2_L_00109009-01
1 10032U 24500MS  26075.70041667  .00000000  00000+0  00000-0 0  9997
2 10032  40.0000  96.0000 0000000   0.0000  96.0000 14.51731151    12
CTC2_L_00109009-02
1 10033U 26743TF  26075.70041667  .00000000  00000+0  00000-0 0  9999
2 10033  40.0000  96.0000 0000000   0.0000 186.0000 14.51731151    13
CTC2_L_00109009-03
1 10034U 26035QN  26075.70041667  .00000000  00000+0  00000-0 0  9994
2 10034  40.0000  96.0000 0000000   0.0000 276.0000 14.51731151    14
CTC2_L_00109009-04
1 10035U 23468AC  26075.70041667  .00000000  00000+0  00000-0 0  9992
2 10035  40.0000  96.0000 0000000   0.0000   6.0000 14.51731151    16
CTC2_L_00109010-01
1 10036U 24404DP  26075.70041667  .00000000  00000+0  00000-0 0  9994
2 10036  40.0000 108.0000 0000000   0.0000 108.0000 14.51731151    14
CTC2_L_00109010-02
1 10037U 26171GP  26075.70041667  .00000000  00000+0  00000-0 0  9998
2 10037  40.0000 108.0000 0000000   0.0000 198.0000 14.51731151    14
CTC2_L_00109010-03
1 10038U 24165WA  26075.70041667  .00000000  00000+0  00000-0 0  9990
2 10038  40.0000 108.0000 0000000   0.0000 288.0000 14.51731151    15
CTC2_L_00109010-04
1 10039U 23956YN  26075.70041667  .00000000  00000+0  00000-0 0  9998
2 10039  40.0000 108.0000 0000000   0.0000  18.0000 14.51731151    17
CTC2_L_00109011-01
1 10040U 26558ZP  26075.70041667  .00000000  00000+0  00000-0 0  9991
2 10040  40.0000 120.0000 0000000   0.0000 120.0000 14.51731151    17
CTC2_L_00109011-02
1 10041U 22397W   26075.70041667  .00000000  00000+0  00000-0 0  9999
2 10041  40.0000 120.0000 0000000   0.0000 210.0000 14.51731151    18
CTC2_L_00109011-03
1 10042U 26739DN  26075.70041667  .00000000  00000+0  00000-0 0  9994
2 10042  40.0000 120.0000 0000000   0.0000 300.0000 14.51731151    19
CTC2_L_00109011-04
1 10043U 22972KF  26075.70041667  .00000000  00000+0  00000-0 0  9990
2 10043  40.0000 120.0000 0000000   0.0000  30.0000 14.51731151    10
CTC2_L_00109012-01
1 10044U 24246DX  26075.70041667  .00000000  00000+0  00000-0 0  9997
2 10044  40.0000 132.0000 0000000   0.0000 132.0000 14.51731151    17
CTC2_L_00109012-02
1 10045U 24781UR  26075.70041667  .00000000  00000+0  00000-0 0  9992
2 10045  40.0000 132.0000 0000000   0.0000 222.0000 14.51731151    18
CTC2_L_00109012-03
1 10046U 25045YW  26075.70041667  .00000000  00000+0  00000-0 0  9997
2 10046  40.0000 132.0000 0000000   0.0000 312.0000 14.51731151    19
CTC2_L_00109012-04
1 10047U 26197OI  26075.70041667  .00000000  00000+0  00000-0 0  9997
2 10047  40.0000 132.0000 0000000   0.0000  42.0000 14.51731151    10
CTC2_L_00109013-01
1 10048U 23593OB  26075.70041667  .00000000  00000+0  00000-0 0  9995
2 10048  40.0000 144.0000 0000000   0.0000 144.0000 14.51731151    17
CTC2_L_00109013-02
1 10049U 25935UP  26075.70041667  .00000000  00000+0  00000-0 0  9998
2 10049  40.0000 144.0000 0000000   0.0000 234.0000 14.51731151    18
CTC2_L_00109013-03
1 10050U 24998XZ  26075.70041667  .00000000  00000+0  00000-0 0  9998
2 10050  40.0000 144.0000 0000000   0.0000 324.0000 14.51731151    10
CTC2_L_00109013-04
1 10051U 26443A   26075.70041667  .00000000  00000+0  00000-0 0  9996
2 10051  40.0000 144.0000 0000000   0.0000  54.0000 14.51731151    11
CTC2_L_00109014-01
1 10052U 23349IK  26075.70041667  .00000000  00000+0  00000-0 0  9999
2 10052  40.0000 156.0000 0000000   0.0000 156.0000 14.51731151    18
CTC2_L_00109014-02
1 10053U 23860DU  26075.70041667  .00000000  00000+0  00000-0 0  9998
2 10053  40.0000 156.0000 0000000   0.0000 246.0000 14.51731151    19
CTC2_L_00109014-03
1 10054U 25565OP  26075.70041667  .00000000  00000+0  00000-0 0  9993
2 10054  40.0000 156.0000 0000000   0.0000 336.0000 14.51731151    10
CTC2_L_00109014-04
1 10055U 23348ND  26075.70041667  .00000000  00000+0  00000-0 0  9991
2 10055  40.0000 156.0000 0000000   0.0000  66.0000 14.51731151    11
CTC2_L_00109015-01
1 10056U 23672SJ  26075.70041667  .00000000  00000+0  00000-0 0  9992
2 10056  40.0000 168.0000 0000000   0.0000 168.0000 14.51731151    18
CTC2_L_00109015-02
1 10057U 22673WH  26075.70041667  .00000000  00000+0  00000-0 0  9993
2 10057  40.0000 168.0000 0000000   0.0000 258.0000 14.51731151    19
CTC2_L_00109015-03
1 10058U 26519PF  26075.70041667  .00000000  00000+0  00000-0 0  9997
2 10058  40.0000 168.0000 0000000   0.0000 348.0000 14.51731151    10
CTC2_L_00109015-04
1 10059U 26262NS  26075.70041667  .00000000  00000+0  00000-0 0  9993
2 10059  40.0000 168.0000 0000000   0.0000  78.0000 14.51731151    11
CTC2_L_00109016-01
1 10060U 26261EI  26075.70041667  .00000000  00000+0  00000-0 0  9994
2 10060  40.0000 180.0000 0000000   0.0000 180.0000 14.51731151    11
CTC2_L_00109016-02
1 10061U 26934IQ  26075.70041667  .00000000  00000+0  00000-0 0  9992
2 10061  40.0000 180.0000 0000000   0.0000 270.0000 14.51731151    12
